BEESAT-1                
1 35933U 09051C   24366.62807071  .00004037  00000+0  85010-3 0  9990
2 35933  98.4407 254.4097 0006696  80.7718 279.4238 14.60045994811429
ITUPSAT1                
1 35935U 09051E   25001.13320627  .00003846  00000+0  83060-3 0  9992
2 35935  98.4504 254.5880 0008920  86.2111 274.0107 14.58904949811146
SVYATOBOR 1 (RS60S)     
1 57187U 23091X   25001.09350856  .00020368  00000+0  10954-2 0  9996
2 57187  97.5876  58.9345 0012974 143.4035 216.8085 15.14827509 83439
TRITON-1                
1 39427U 13066M   25001.06384561  .00008251  00000+0  10821-2 0  9991
2 39427  97.8422 279.0357 0097761 162.5977 197.8624 14.77223105595580
DELFI-N3XT              
1 39428U 13066N   24366.49314031  .00014993  00000+0  16651-2 0  9994
2 39428  97.8385 280.3747 0091025 165.2058 195.1852 14.84280922595294
NEE-02 KRYSAOR          
1 39441U 13066AB  24366.27441709  .00008286  00000+0  98730-3 0  9995
2 39441  97.8430 301.3308 0071750  15.2986 345.0374 14.82715386597117
TIGRISAT                
1 40043U 14033AK  24366.88469199  .00006493  00000+0  81612-3 0  9999
2 40043  97.7120 161.6716 0053387  19.8727 340.4550 14.81404342566703
BRITE-PL2 (HEWELIUSZ)   
1 40119U 14049B   24366.86399829  .00006393  00000+0  64812-3 0  9992
2 40119  97.8868 106.0084 0016260  74.3660 285.9351 14.91148914562012
SNAP-3 JIMI             
1 40975U 15058M   24366.86240945  .00023812  00000+0  17478-2 0  9997
2 40975  64.7690  93.5714 0167748 246.9146 111.4209 14.92817304 34478
AEROCUBE 8D             
1 41852U 16067E   24366.97087458  .00019303  00000+0  10781-2 0  9993
2 41852  98.1099 187.8853 0004699 147.5362 212.6157 15.13563753445257
NETSAT-4                
1 46504U 20068U   24366.85647267  .00029917  00000+0  12590-2 0  9997
2 46504  97.8296 330.6897 0010504  48.3444 311.8689 15.23283557234179
ROBUSTA-1E (ENSO)       
1 58470U 23185J   25001.12316627  .00059760  00000+0  16100-2 0  9995
2 58470  97.3998  73.2450 0008571 299.1586  60.8800 15.37587317 60390
SITRO-AIS 50            
1 59061U 24039L   25001.14288785  .00124659  00000+0  21418-2 0  9994
2 59061  97.4101 330.6334 0007648 204.8891 155.1993 15.50662033 47010
ROBUSTA-3A (MEDITERRAN*)
1 60243U 24128J   24365.75373882  .00021396  00000+0  16749-2 0  9994
2 60243  61.9910 279.6135 0031607   9.7768 350.3930 15.00669781 26059
GLOBALSTAR M074         
1 37189U 10054B   24366.89083010 -.00000050  00000+0  29951-3 0  9992
2 37189  52.0026 288.4132 0000893  54.6136  21.3189 12.62260950655933
GLOBALSTAR M083         
1 37739U 11033A   24366.96303263 -.00000090  00000+0  79368-4 0  9996
2 37739  51.9829 193.3486 0000917  95.2441  69.4917 12.62270235625730
ORBCOMM FM118           
1 41183U 15081E   24366.68330099  .00003928  00000+0  88924-3 0  9996
2 41183  47.0046 357.4955 0001221  62.0237 298.0772 14.57656978480009
IRIDIUM 132             
1 42961U 17061G   24366.74850231  .00000298  00000+0  99360-4 0  9997
2 42961  86.3962 247.7055 0001911  89.0427 271.0988 14.34218164378502
IRIDIUM 131             
1 43079U 17083K   24366.57674450 -.00000129  00000+0 -53289-4 0  9995
2 43079  86.3999 184.7413 0001955  86.6981 273.4438 14.34216301367760
IRIDIUM 149             
1 43250U 18030B   24366.83336773  .00000991  00000+0  34668-3 0  9995
2 43250  86.3997 152.9250 0002136  96.7689 263.3750 14.34223287353855
IRIDIUM 176             
1 43923U 19002B   24366.29217080  .00003038  00000+0  47770-3 0  9994
2 43923  86.6098 216.2648 0002752  67.2837 292.8671 14.72261868320845
IRIDIUM 172             
1 43927U 19002F   24366.98609600  .00000521  00000+0  17911-3 0  9995
2 43927  86.3974 215.9481 0002029  84.7214 275.4213 14.34219355312684
